XCUBE-1                 
1 62400U 24247Z   26068.48297321  .00009773  00000+0  36224-3 0  9994
2 62400  44.9938 117.7807 0005235 331.1499  28.9094 15.27910558 67702
STARLINK-33940          
1 63831U 25092AD  26068.29449998  .00036766  00000+0  13384-2 0  9993
2 63831  43.0000 174.8293 0000743 283.8597  76.2172 15.27594214 48603
